[{"OBJECT_NAME":"ASRTU-1 (AO-123)","OBJECT_ID":"2024-199AY","EPOCH":"2026-03-09T22:36:42.151392","MEAN_MOTION":15.34070057,"ECCENTRICITY":0.0012786,"INCLINATION":97.3152,"RA_OF_ASC_NODE":298.5256,"ARG_OF_PERICENTER":309.3392,"MEAN_ANOMALY":50.6717,"EPHEMERIS_TYPE":0,"CLASSIFICATION_TYPE":"U","NORAD_CAT_ID":61781,"ELEMENT_SET_NO":999,"REV_AT_EPOCH":11870,"BSTAR":0.00032267684,"MEAN_MOTION_DOT":0.00010589,"MEAN_MOTION_DDOT":0},{"OBJECT_NAME":"STARLINK-35586","OBJECT_ID":"2025-240P","EPOCH":"2026-03-09T06:58:57.084672","MEAN_MOTION":15.30199855,"ECCENTRICITY":0.00012006,"INCLINATION":53.1591,"RA_OF_ASC_NODE":64.9288,"ARG_OF_PERICENTER":82.9425,"MEAN_ANOMALY":277.1712,"EPHEMERIS_TYPE":0,"CLASSIFICATION_TYPE":"U","NORAD_CAT_ID":66159,"ELEMENT_SET_NO":999,"REV_AT_EPOCH":2192,"BSTAR":0.00094324194,"MEAN_MOTION_DOT":0.00027681,"MEAN_MOTION_DDOT":0}]
